*******************************************************************************
JPL/HORIZONS                19 Fortuna (A852 QA)           2020-Jun-20 07:53:13
Rec #:      19 (+COV) Soln.date: 2020-May-20_00:56:00   # obs: 3375 (1852-2020)
 
IAU76/J2000 helio. ecliptic osc. elements (au, days, deg., period=Julian yrs):
 
  EPOCH=  2452638.5 ! 2002-Dec-30.00 (TDB)         Residual RMS= .28416
   EC= .1587174369187372   QR= 2.05514330792462    TP= 2452262.1272592321
   OM= 211.4174025895626   W=  182.2668617225706   IN= 1.571939834335859
   A= 2.442869254769168    MA= 97.15650868124325   ADIST= 2.830595201613716
   PER= 3.8182             N= .258139061           ANGMOM= .026545522
   DAN= 2.83018            DDN= 2.05536            L= 33.6834221
   B= -.0621687            MOID= 1.06069005        TP= 2001-Dec-18.6272592321
 
Asteroid physical parameters (km, seconds, rotational period in hours):
   GM= n.a.                RAD= 100.               ROTPER= 7.4432
   H= 7.3                  G= .100                 B-V= .719
                           ALBEDO= .037            STYP= Ch
 
ASTEROID comments: 
1: soln ref.= JPL#130, OCC=0
2: source=ORB
*******************************************************************************
 
 
*******************************************************************************
Ephemeris / WWW_USER Sat Jun 20 07:53:13 2020 Pasadena, USA      / Horizons
*******************************************************************************
Target body name: 19 Fortuna (A852 QA)            {source: JPL#130}
Center body name: Solar System Barycenter (0)     {source: DE431}
Center-site name: BODY CENTER
*******************************************************************************
Start time      : A.D. 1969-Jun-28 00:00:00.0000 TDB
Stop  time      : A.D. 2071-May-04 00:00:00.0000 TDB
Step-size       : 7200 minutes
*******************************************************************************
Center geodetic : 0.00000000,0.00000000,0.0000000 {E-lon(deg),Lat(deg),Alt(km)}
Center cylindric: 0.00000000,0.00000000,0.0000000 {E-lon(deg),Dxy(km),Dz(km)}
Center radii    : (undefined)                                                  
Small perturbers: Yes                             {source: SB431-N16}
Output units    : AU-D
Output type     : GEOMETRIC cartesian states
Output format   : 2 (position and velocity)
Reference frame : Ecliptic of J2000.0
*******************************************************************************
Initial IAU76/J2000 heliocentric ecliptic osculating elements (au, days, deg.):
  EPOCH=  2452638.5 ! 2002-Dec-30.00 (TDB)         Residual RMS= .28416        
   EC= .1587174369187372   QR= 2.05514330792462    TP= 2452262.1272592321      
   OM= 211.4174025895626   W=  182.2668617225706   IN= 1.571939834335859       
  Equivalent ICRF heliocentric equatorial cartesian coordinates (au, au/d):
   X=-2.165633952398264E+00  Y= 1.257157433772954E+00  Z= 4.769943901023406E-01
  VX=-6.858788102786417E-03 VY=-7.374511573482749E-03 VZ=-3.100000048750754E-03
Asteroid physical parameters (km, seconds, rotational period in hours):        
   GM= n.a.                RAD= 100.               ROTPER= 7.4432              
   H= 7.3                  G= .100                 B-V= .719                   
                           ALBEDO= .037            STYP= Ch                    
*******************************************************************************
            JDTDB,            Calendar Date (TDB),        delta-T,                      X,                      Y,                      Z,                     VX,                     VY,                     VZ,
******************************************************************************************************************************************************************************************************************
$$SOE
2464200.500000000, A.D. 2034-Aug-26 00:00:00.0000,      69.182749, -1.790520798917981E+00, -2.165238291080565E+00,  2.589269385236374E-02,  7.621006464935124E-03, -5.650075319905864E-03,  2.405110906598712E-04,
2464205.500000000, A.D. 2034-Aug-31 00:00:00.0000,      69.182661, -1.752117826729554E+00, -2.193123939797300E+00,  2.709085405022254E-02,  7.739806651588121E-03, -5.503804910412719E-03,  2.387387437075297E-04,
2464210.500000000, A.D. 2034-Sep-05 00:00:00.0000,      69.182583, -1.713126519318255E+00, -2.220272560388862E+00,  2.827993872840774E-02,  7.856334665614991E-03, -5.355266626943276E-03,  2.368808598952761E-04,
2464215.500000000, A.D. 2034-Sep-10 00:00:00.0000,      69.182516, -1.673558326453224E+00, -2.246672851938141E+00,  2.945951985327445E-02,  7.970554828064786E-03, -5.204475870934186E-03,  2.349372983162753E-04,
2464220.500000000, A.D. 2034-Sep-15 00:00:00.0000,      69.182462, -1.633424878065283E+00, -2.272313590867800E+00,  3.062916866949149E-02,  8.082430749482481E-03, -5.051448182434539E-03,  2.329079112794498E-04,
2464225.500000000, A.D. 2034-Sep-20 00:00:00.0000,      69.182418, -1.592737987855221E+00, -2.297183631718039E+00,  3.178845566729358E-02,  8.191925307647445E-03, -4.896199274198034E-03,  2.307925447841536E-04,
2464230.500000000, A.D. 2034-Sep-25 00:00:00.0000,      69.182384, -1.551509657012743E+00, -2.321271908098037E+00,  3.293695055219649E-02,  8.299000625566936E-03, -4.738745067068532E-03,  2.285910390321465E-04,
2464235.500000000, A.D. 2034-Sep-30 00:00:00.0000,      69.182360, -1.509752078044798E+00, -2.344567433817550E+00,  3.407422221737934E-02,  8.403618049739492E-03, -4.579101726653437E-03,  2.263032289840951E-04,
2464240.500000000, A.D. 2034-Oct-05 00:00:00.0000,      69.182350, -1.467477638711802E+00, -2.367059304205130E+00,  3.519983871896753E-02,  8.505738128739306E-03, -4.417285701304795E-03,  2.239289449611334E-04,
2464245.500000000, A.D. 2034-Oct-10 00:00:00.0000,      69.182353, -1.424698926070038E+00, -2.388736697619617E+00,  3.631336725442874E-02,  8.605320592170302E-03, -4.253313761456745E-03,  2.214680132908190E-04,
2464250.500000000, A.D. 2034-Oct-15 00:00:00.0000,      69.182369, -1.381428730618289E+00, -2.409588877161811E+00,  3.741437414431575E-02,  8.702324330024831E-03, -4.087203040371413E-03,  2.189202569988017E-04,
2464255.500000000, A.D. 2034-Oct-20 00:00:00.0000,      69.182397, -1.337680050546578E+00, -2.429605192593455E+00,  3.850242481758555E-02,  8.796707372488340E-03, -3.918971076305852E-03,  2.162854965483478E-04,
2464260.500000000, A.D. 2034-Oct-25 00:00:00.0000,      69.182435, -1.293466096084577E+00, -2.448775082470488E+00,  3.957708380072730E-02,  8.888426870299922E-03, -3.748635856053645E-03,  2.135635506221049E-04,
2464265.500000000, A.D. 2034-Oct-30 00:00:00.0000,      69.182484, -1.248800293946429E+00, -2.467088076497488E+00,  4.063791471086763E-02,  8.977439075851303E-03, -3.576215859897495E-03,  2.107542369273094E-04,
2464270.500000000, A.D. 2034-Nov-04 00:00:00.0000,      69.182545, -1.203696291868038E+00, -2.484533798111006E+00,  4.168448025293488E-02,  9.063699325087703E-03, -3.401730108289370E-03,  2.078573730161464E-04,
2464275.500000000, A.D. 2034-Nov-09 00:00:00.0000,      69.182619, -1.158167963233165E+00, -2.501101967301360E+00,  4.271634222101040E-02,  9.147162020061321E-03, -3.225198210583130E-03,  2.048727771482324E-04,
2464280.500000000, A.D. 2034-Nov-14 00:00:00.0000,      69.182704, -1.112229411785345E+00, -2.516782403683263E+00,  4.373306150418078E-02,  9.227780612046375E-03, -3.046640415803053E-03,  2.018002692271891E-04,
2464285.500000000, A.D. 2034-Nov-19 00:00:00.0000,      69.182798, -1.065894976422624E+00, -2.531565029825054E+00,  4.473419809725801E-02,  9.305507585327747E-03, -2.866077665307793E-03,  1.986396718160871E-04,
2464290.500000000, A.D. 2034-Nov-24 00:00:00.0000,      69.182900, -1.019179236071352E+00, -2.545439874845887E+00,  4.571931111677328E-02,  9.380294441806363E-03, -2.683531647306924E-03,  1.953908112271375E-04,
2464295.500000000, A.D. 2034-Nov-29 00:00:00.0000,      69.183009, -9.720970146346618E-01, -2.558397078290184E+00,  4.668795882259195E-02,  9.452091686545061E-03, -2.499024853253911E-03,  1.920535186798574E-04,
2464300.500000000, A.D. 2034-Dec-04 00:00:00.0000,      69.183127, -9.246633860105761E-01, -2.570426894288811E+00,  4.763969864547174E-02,  9.520848814395374E-03, -2.312580636151797E-03,  1.886276315186023E-04,
2464305.500000000, A.D. 2034-Dec-09 00:00:00.0000,      69.183253, -8.768936791739236E-01, -2.581519696016712E+00,  4.857408722082920E-02,  9.586514297875619E-03, -2.124223270856493E-03,  1.851129944777000E-04,
2464310.500000000, A.D. 2034-Dec-14 00:00:00.0000,      69.183386, -8.288034833154089E-01, -2.591665980457404E+00,  4.949068042894542E-02,  9.649035576454051E-03, -1.933978016539180E-03,  1.815094609899262E-04,
2464315.500000000, A.D. 2034-Dec-19 00:00:00.0000,      69.183522, -7.804086530305521E-01, -2.600856373485566E+00,  5.038903344183644E-02,  9.708359047326125E-03, -1.741871181503747E-03,  1.778168945496169E-04,
2464320.500000000, A.D. 2034-Dec-24 00:00:00.0000,      69.183661, -7.317253135509186E-01, -2.609081635279945E+00,  5.126870077712230E-02,  9.764430057726956E-03, -1.547930190504276E-03,  1.740351701515128E-04,
2464325.500000000, A.D. 2034-Dec-29 00:00:00.0000,      69.183801, -6.827698660098429E-01, -2.616332666079213E+00,  5.212923635931987E-02,  9.817192898836029E-03, -1.352183654615545E-03,  1.701641758230479E-04,
2464330.500000000, A.D. 2035-Jan-03 00:00:00.0000,      69.183944, -6.335589927344125E-01, -2.622600512293590E+00,  5.297019358904663E-02,  9.866590801392770E-03, -1.154661443669041E-03,  1.662038142573102E-04,
2464335.500000000, A.D. 2035-Jan-08 00:00:00.0000,      69.184090, -5.841096625547595E-01, -2.627876372985089E+00,  5.379112542064086E-02,  9.912565933187258E-03, -9.553947612700234E-04,  1.621540045475758E-04,
